CZ-4B R/B               
1 66989U 25289B   25363.16266509  .00153203  91912-5  68746-3 0  9993
2 66989  97.5224  69.7310 0136232 300.5776  58.2104 15.71399632  3144
TJS-22                  
1 66990U 25290A   25362.33909773  .00000017  00000+0  00000+0 0  9993
2 66990   1.9492 285.0480 0003353 343.7110  16.8250  1.00272040   319
CZ-3B R/B               
1 66991U 25290B   25349.72468800  .00057911 -20514-6  75879-3 0  9998
2 66991  28.4636 300.4666 7240884 182.7002 168.6250  2.38388611   165
2025-292A               
1 66993U 25292A   25363.16752218  .00007663  00000+0  54817-3 0  9993
2 66993  97.6494  75.5572 0014953 214.0959 145.9307 15.04633980  2861
2025-292B               
1 66994U 25292B   25363.29994144  .00008689  00000+0  61999-3 0  9992
2 66994  97.6505  75.6917 0014742 214.0422 145.9860 15.04691188  2880
2025-292C               
1 66995U 25292C   25363.30003228  .00009570  00000+0  68409-3 0  9992
2 66995  97.6495  75.6895 0014924 212.1497 147.8820 15.04594486  2887
2025-292D               
1 66996U 25292D   25363.29938744  .00006782  00000+0  48514-3 0  9998
2 66996  97.6491  75.6892 0014143 216.1455 143.8817 15.04688289  2889
2025-292E               
1 66997U 25292E   25363.23170778  .00007982  00000+0  56807-3 0  9995
2 66997  97.6512  75.6298 0014502 218.0041 142.0163 15.04820245  2868
2025-292F               
1 66998U 25292F   25363.16308213  .00009902  00000+0  69957-3 0  9999
2 66998  97.6535  75.5712 0015628 218.9810 141.0291 15.05016064  2865
2025-292G               
1 66999U 25292G   25363.16227846  .00010010  00000+0  70600-3 0  9991
2 66999  97.6545  75.5743 0015114 220.8578 139.1516 15.05080884  2863
2025-292H               
1 67000U 25292H   25363.16206355  .00012249  00000+0  86167-3 0  9998
2 67000  97.6558  75.5775 0015046 220.7300 139.2802 15.05125399  2738
2025-292J               
1 67001U 25292J   25363.03663332  .00009704  00000+0  69536-3 0  9990
2 67001  97.6525  75.4306 0015354 210.9818 149.0504 15.04492035  2842
