CCSDS_OMM_VERS = 2.0
CREATION_DATE  = 
ORIGINATOR     = 

OBJECT_NAME    = CZ-4B R/B
OBJECT_ID      = 2025-289B
CENTER_NAME    = EARTH
REF_FRAME      = TEME
TIME_SYSTEM    = UTC
MEAN_ELEMENT_THEORY = SGP/SGP4

EPOCH          = 2025-12-29T03:54:14.263776
MEAN_MOTION    = 15.71399632
ECCENTRICITY   = .01362326
INCLINATION    = 97.5224
RA_OF_ASC_NODE = 69.7310
ARG_OF_PERICENTER = 300.5776
MEAN_ANOMALY   = 58.2104

EPHEMERIS_TYPE = 0
CLASSIFICATION_TYPE = U
NORAD_CAT_ID   = 66989
ELEMENT_SET_NO = 999
REV_AT_EPOCH   = 314
BSTAR          = .68746408E-3
MEAN_MOTION_DOT = .153203E-2
MEAN_MOTION_DDOT = .9191213E-5

CCSDS_OMM_VERS = 2.0
CREATION_DATE  = 
ORIGINATOR     = 

OBJECT_NAME    = TJS-22
OBJECT_ID      = 2025-290A
CENTER_NAME    = EARTH
REF_FRAME      = TEME
TIME_SYSTEM    = UTC
MEAN_ELEMENT_THEORY = SGP/SGP4

EPOCH          = 2025-12-28T08:08:18.043872
MEAN_MOTION    = 1.00272040
ECCENTRICITY   = .00033535
INCLINATION    = 1.9492
RA_OF_ASC_NODE = 285.0480
ARG_OF_PERICENTER = 343.7110
MEAN_ANOMALY   = 16.8250

EPHEMERIS_TYPE = 0
CLASSIFICATION_TYPE = U
NORAD_CAT_ID   = 66990
ELEMENT_SET_NO = 999
REV_AT_EPOCH   = 31
BSTAR          = 0
MEAN_MOTION_DOT = .17E-6
MEAN_MOTION_DDOT = 0

CCSDS_OMM_VERS = 2.0
CREATION_DATE  = 
ORIGINATOR     = 

OBJECT_NAME    = CZ-3B R/B
OBJECT_ID      = 2025-290B
CENTER_NAME    = EARTH
REF_FRAME      = TEME
TIME_SYSTEM    = UTC
MEAN_ELEMENT_THEORY = SGP/SGP4

EPOCH          = 2025-12-15T17:23:33.043200
MEAN_MOTION    = 2.38388611
ECCENTRICITY   = .7240884
INCLINATION    = 28.4636
RA_OF_ASC_NODE = 300.4666
ARG_OF_PERICENTER = 182.7002
MEAN_ANOMALY   = 168.6250

EPHEMERIS_TYPE = 0
CLASSIFICATION_TYPE = U
NORAD_CAT_ID   = 66991
ELEMENT_SET_NO = 999
REV_AT_EPOCH   = 16
BSTAR          = .75879E-3
MEAN_MOTION_DOT = .57911E-3
MEAN_MOTION_DDOT = -.20514E-6

CCSDS_OMM_VERS = 2.0
CREATION_DATE  = 
ORIGINATOR     = 

OBJECT_NAME    = 2025-292A
OBJECT_ID      = 2025-292A
CENTER_NAME    = EARTH
REF_FRAME      = TEME
TIME_SYSTEM    = UTC
MEAN_ELEMENT_THEORY = SGP/SGP4

EPOCH          = 2025-12-29T04:01:13.916352
MEAN_MOTION    = 15.04633980
ECCENTRICITY   = .00149531
INCLINATION    = 97.6494
RA_OF_ASC_NODE = 75.5572
ARG_OF_PERICENTER = 214.0959
MEAN_ANOMALY   = 145.9307

EPHEMERIS_TYPE = 0
CLASSIFICATION_TYPE = U
NORAD_CAT_ID   = 66993
ELEMENT_SET_NO = 999
REV_AT_EPOCH   = 286
BSTAR          = .54816919E-3
MEAN_MOTION_DOT = .7663E-4
MEAN_MOTION_DDOT = 0

CCSDS_OMM_VERS = 2.0
CREATION_DATE  = 
ORIGINATOR     = 

OBJECT_NAME    = 2025-292B
OBJECT_ID      = 2025-292B
CENTER_NAME    = EARTH
REF_FRAME      = TEME
TIME_SYSTEM    = UTC
MEAN_ELEMENT_THEORY = SGP/SGP4

EPOCH          = 2025-12-29T07:11:54.940416
MEAN_MOTION    = 15.04691188
ECCENTRICITY   = .0014742
INCLINATION    = 97.6505
RA_OF_ASC_NODE = 75.6917
ARG_OF_PERICENTER = 214.0422
MEAN_ANOMALY   = 145.9860

EPHEMERIS_TYPE = 0
CLASSIFICATION_TYPE = U
NORAD_CAT_ID   = 66994
ELEMENT_SET_NO = 999
REV_AT_EPOCH   = 288
BSTAR          = .61998967E-3
MEAN_MOTION_DOT = .8689E-4
MEAN_MOTION_DDOT = 0

CCSDS_OMM_VERS = 2.0
CREATION_DATE  = 
ORIGINATOR     = 

OBJECT_NAME    = 2025-292C
OBJECT_ID      = 2025-292C
CENTER_NAME    = EARTH
REF_FRAME      = TEME
TIME_SYSTEM    = UTC
MEAN_ELEMENT_THEORY = SGP/SGP4

EPOCH          = 2025-12-29T07:12:02.788992
MEAN_MOTION    = 15.04594486
ECCENTRICITY   = .00149241
INCLINATION    = 97.6495
RA_OF_ASC_NODE = 75.6895
ARG_OF_PERICENTER = 212.1497
MEAN_ANOMALY   = 147.8820

EPHEMERIS_TYPE = 0
CLASSIFICATION_TYPE = U
NORAD_CAT_ID   = 66995
ELEMENT_SET_NO = 999
REV_AT_EPOCH   = 288
BSTAR          = .68408699E-3
MEAN_MOTION_DOT = .957E-4
MEAN_MOTION_DDOT = 0

CCSDS_OMM_VERS = 2.0
CREATION_DATE  = 
ORIGINATOR     = 

OBJECT_NAME    = 2025-292D
OBJECT_ID      = 2025-292D
CENTER_NAME    = EARTH
REF_FRAME      = TEME
TIME_SYSTEM    = UTC
MEAN_ELEMENT_THEORY = SGP/SGP4

EPOCH          = 2025-12-29T07:11:07.074816
MEAN_MOTION    = 15.04688289
ECCENTRICITY   = .00141434
INCLINATION    = 97.6491
RA_OF_ASC_NODE = 75.6892
ARG_OF_PERICENTER = 216.1455
MEAN_ANOMALY   = 143.8817

EPHEMERIS_TYPE = 0
CLASSIFICATION_TYPE = U
NORAD_CAT_ID   = 66996
ELEMENT_SET_NO = 999
REV_AT_EPOCH   = 288
BSTAR          = .48513776E-3
MEAN_MOTION_DOT = .6782E-4
MEAN_MOTION_DDOT = 0

CCSDS_OMM_VERS = 2.0
CREATION_DATE  = 
ORIGINATOR     = 

OBJECT_NAME    = 2025-292E
OBJECT_ID      = 2025-292E
CENTER_NAME    = EARTH
REF_FRAME      = TEME
TIME_SYSTEM    = UTC
MEAN_ELEMENT_THEORY = SGP/SGP4

EPOCH          = 2025-12-29T05:33:39.552192
MEAN_MOTION    = 15.04820245
ECCENTRICITY   = .00145025
INCLINATION    = 97.6512
RA_OF_ASC_NODE = 75.6298
ARG_OF_PERICENTER = 218.0041
MEAN_ANOMALY   = 142.0163

EPHEMERIS_TYPE = 0
CLASSIFICATION_TYPE = U
NORAD_CAT_ID   = 66997
ELEMENT_SET_NO = 999
REV_AT_EPOCH   = 286
BSTAR          = .56806752E-3
MEAN_MOTION_DOT = .7982E-4
MEAN_MOTION_DDOT = 0

CCSDS_OMM_VERS = 2.0
CREATION_DATE  = 
ORIGINATOR     = 

OBJECT_NAME    = 2025-292F
OBJECT_ID      = 2025-292F
CENTER_NAME    = EARTH
REF_FRAME      = TEME
TIME_SYSTEM    = UTC
MEAN_ELEMENT_THEORY = SGP/SGP4

EPOCH          = 2025-12-29T03:54:50.296032
MEAN_MOTION    = 15.05016064
ECCENTRICITY   = .0015628
INCLINATION    = 97.6535
RA_OF_ASC_NODE = 75.5712
ARG_OF_PERICENTER = 218.9810
MEAN_ANOMALY   = 141.0291

EPHEMERIS_TYPE = 0
CLASSIFICATION_TYPE = U
NORAD_CAT_ID   = 66998
ELEMENT_SET_NO = 999
REV_AT_EPOCH   = 286
BSTAR          = .69956676E-3
MEAN_MOTION_DOT = .9902E-4
MEAN_MOTION_DDOT = 0

CCSDS_OMM_VERS = 2.0
CREATION_DATE  = 
ORIGINATOR     = 

OBJECT_NAME    = 2025-292G
OBJECT_ID      = 2025-292G
CENTER_NAME    = EARTH
REF_FRAME      = TEME
TIME_SYSTEM    = UTC
MEAN_ELEMENT_THEORY = SGP/SGP4

EPOCH          = 2025-12-29T03:53:40.858944
MEAN_MOTION    = 15.05080884
ECCENTRICITY   = .00151141
INCLINATION    = 97.6545
RA_OF_ASC_NODE = 75.5743
ARG_OF_PERICENTER = 220.8578
MEAN_ANOMALY   = 139.1516

EPHEMERIS_TYPE = 0
CLASSIFICATION_TYPE = U
NORAD_CAT_ID   = 66999
ELEMENT_SET_NO = 999
REV_AT_EPOCH   = 286
BSTAR          = .70599969E-3
MEAN_MOTION_DOT = .1001E-3
MEAN_MOTION_DDOT = 0

CCSDS_OMM_VERS = 2.0
CREATION_DATE  = 
ORIGINATOR     = 

OBJECT_NAME    = 2025-292H
OBJECT_ID      = 2025-292H
CENTER_NAME    = EARTH
REF_FRAME      = TEME
TIME_SYSTEM    = UTC
MEAN_ELEMENT_THEORY = SGP/SGP4

EPOCH          = 2025-12-29T03:53:22.290720
MEAN_MOTION    = 15.05125399
ECCENTRICITY   = .00150464
INCLINATION    = 97.6558
RA_OF_ASC_NODE = 75.5775
ARG_OF_PERICENTER = 220.7300
MEAN_ANOMALY   = 139.2802

EPHEMERIS_TYPE = 0
CLASSIFICATION_TYPE = U
NORAD_CAT_ID   = 67000
ELEMENT_SET_NO = 999
REV_AT_EPOCH   = 273
BSTAR          = .86166992E-3
MEAN_MOTION_DOT = .12249E-3
MEAN_MOTION_DDOT = 0

CCSDS_OMM_VERS = 2.0
CREATION_DATE  = 
ORIGINATOR     = 

OBJECT_NAME    = 2025-292J
OBJECT_ID      = 2025-292J
CENTER_NAME    = EARTH
REF_FRAME      = TEME
TIME_SYSTEM    = UTC
MEAN_ELEMENT_THEORY = SGP/SGP4

EPOCH          = 2025-12-29T00:52:45.118848
MEAN_MOTION    = 15.04492035
ECCENTRICITY   = .00153544
INCLINATION    = 97.6525
RA_OF_ASC_NODE = 75.4306
ARG_OF_PERICENTER = 210.9818
MEAN_ANOMALY   = 149.0504

EPHEMERIS_TYPE = 0
CLASSIFICATION_TYPE = U
NORAD_CAT_ID   = 67001
ELEMENT_SET_NO = 999
REV_AT_EPOCH   = 284
BSTAR          = .69536192E-3
MEAN_MOTION_DOT = .9704E-4
MEAN_MOTION_DDOT = 0

